{
    "links": {
        "self": "http://www.neowsapp.com/rest/v1/neo/54017693?api_key=iIulBulltgU6a56xZRHN4H3l9WmuAYTsLGpBGhQ2"
    },
    "id": "54017693",
    "neo_reference_id": "54017693",
    "name": "(2020 MD4)",
    "designation": "2020 MD4",
    "nasa_jpl_url": "http://ssd.jpl.nasa.gov/sbdb.cgi?sstr=54017693",
    "absolute_magnitude_h": 24.738,
    "estimated_diameter": {
        "kilometers": {
            "estimated_diameter_min": 0.0299885161,
            "estimated_diameter_max": 0.0670563606
        },
        "meters": {
            "estimated_diameter_min": 29.9885161134,
            "estimated_diameter_max": 67.056360574
        },
        "miles": {
            "estimated_diameter_min": 0.0186339942,
            "estimated_diameter_max": 0.0416668778
        },
        "feet": {
            "estimated_diameter_min": 98.3875232056,
            "estimated_diameter_max": 220.0011900255
        }
    },
    "is_potentially_hazardous_asteroid": false,
    "close_approach_data": [
        {
            "close_approach_date": "2020-06-22",
            "close_approach_date_full": "2020-Jun-22 15:32",
            "epoch_date_close_approach": 1592839920000,
            "relative_velocity": {
                "kilometers_per_second": "11.5586631261",
                "kilometers_per_hour": "41611.1872541155",
                "miles_per_hour": "25855.5735468697"
            },
            "miss_distance": {
                "astronomical": "0.0327252722",
                "lunar": "12.7301308858",
                "kilometers": "4895631.016290214",
                "miles": "3042004.0539203932"
            },
            "orbiting_body": "Earth"
        }
    ],
    "orbital_data": {
        "orbit_id": "1",
        "orbit_determination_date": "2020-07-01 08:42:07",
        "first_observation_date": "2020-06-29",
        "last_observation_date": "2020-07-01",
        "data_arc_in_days": 2,
        "observations_used": 16,
        "orbit_uncertainty": "9",
        "minimum_orbit_intersection": ".0120337",
        "jupiter_tisserand_invariant": "3.366",
        "epoch_osculation": "2459030.5",
        "eccentricity": ".5997081454075924",
        "semi_major_axis": "2.246182358530262",
        "inclination": "3.928395351724749",
        "ascending_node_longitude": "105.6498581395501",
        "orbital_period": "1229.605918341881",
        "perihelion_distance": ".8991285020488268",
        "perihelion_argument": "123.5579994610713",
        "aphelion_distance": "3.593236215011697",
        "perihelion_time": "2458991.015049452951",
        "mean_anomaly": "11.56027470663605",
        "mean_motion": ".292776730031894",
        "equinox": "J2000",
        "orbit_class": {
            "orbit_class_type": "APO",
            "orbit_class_description": "Near-Earth asteroid orbits which cross the Earth’s orbit similar to that of 1862 Apollo",
            "orbit_class_range": "a (semi-major axis) > 1.0 AU; q (perihelion) < 1.017 AU"
        }
    },
    "is_sentry_object": false
}